{
  "type": "FeatureCollection",
  "features": [
    {
      "type": "Feature",
      "properties": {
        "norad_id": 35744,
        "name": "IRIDIUM 33 DEB",
        "group": "iridium-33-debris",
        "lat": 52.11977181658901,
        "lon": -25.311254614454775,
        "alt_km": 667.3904526904425,
        "timestamp": "2025-12-02T17:49:12.414851+00:00",
        "meta_object_name": "IRIDIUM 33 DEB",
        "meta_object_id": "1997-051RX",
        "meta_epoch": "2025-12-02T06:09:08.296128",
        "meta_mean_motion": 14.70755008,
        "meta_eccentricity": 0.001921,
        "meta_inclination": 86.3282,
        "meta_ra_of_asc_node": 330.1733,
        "meta_arg_of_pericenter": 231.5957,
        "meta_mean_anomaly": 128.3534,
        "meta_ephemeris_type": 0,
        "meta_classification_type": "U",
        "meta_norad_cat_id": 35744,
        "meta_element_set_no": 999,
        "meta_rev_at_epoch": 87177,
        "meta_bstar": 0.0014353,
        "meta_mean_motion_dot": 8.805e-05,
        "meta_mean_motion_ddot": 0,
        "tle_line1": "1 35744U 97051RX  25336.25634602  .00008805  00000+0  14353-2 0  9990",
        "tle_line2": "2 35744  86.3282 330.1733 0019210 231.5957 128.3534 14.70755008871772"
      },
      "geometry": {
        "type": "Point",
        "coordinates": [
          -25.311254614454775,
          52.11977181658901
        ]
      }
    },
    {
      "type": "Feature",
      "properties": {
        "norad_id": 35797,
        "name": "IRIDIUM 33 DEB",
        "group": "iridium-33-debris",
        "lat": 80.41071436550818,
        "lon": -3.144749718184275,
        "alt_km": 616.4905812014049,
        "timestamp": "2025-12-02T17:49:12.414862+00:00",
        "meta_object_name": "IRIDIUM 33 DEB",
        "meta_object_id": "1997-051SF",
        "meta_epoch": "2025-12-01T07:25:51.189600",
        "meta_mean_motion": 14.82266268,
        "meta_eccentricity": 0.00115219,
        "meta_inclination": 86.3361,
        "meta_ra_of_asc_node": 335.2237,
        "meta_arg_of_pericenter": 188.9295,
        "meta_mean_anomaly": 171.1725,
        "meta_ephemeris_type": 0,
        "meta_classification_type": "U",
        "meta_norad_cat_id": 35797,
        "meta_element_set_no": 999,
        "meta_rev_at_epoch": 87171,
        "meta_bstar": 0.0020950806,
        "meta_mean_motion_dot": 0.0001679,
        "meta_mean_motion_ddot": 0,
        "tle_line1": "1 35797U 97051SF  25335.30962025  .00016790  00000+0  20951-2 0  9999",
        "tle_line2": "2 35797  86.3361 335.2237 0011521 188.9295 171.1725 14.82266268871710"
      },
      "geometry": {
        "type": "Point",
        "coordinates": [
          -3.144749718184275,
          80.41071436550818
        ]
      }
    },
    {
      "type": "Feature",
      "properties": {
        "norad_id": 35806,
        "name": "IRIDIUM 33 DEB",
        "group": "iridium-33-debris",
        "lat": -35.35715789435782,
        "lon": -152.36872680583207,
        "alt_km": 713.3153439461848,
        "timestamp": "2025-12-02T17:49:12.414872+00:00",
        "meta_object_name": "IRIDIUM 33 DEB",
        "meta_object_id": "1997-051SQ",
        "meta_epoch": "2025-11-21T22:04:29.472384",
        "meta_mean_motion": 14.57052239,
        "meta_eccentricity": 0.00159672,
        "meta_inclination": 86.3448,
        "meta_ra_of_asc_node": 29.7928,
        "meta_arg_of_pericenter": 137.8294,
        "meta_mean_anomaly": 222.4146,
        "meta_ephemeris_type": 0,
        "meta_classification_type": "U",
        "meta_norad_cat_id": 35806,
        "meta_element_set_no": 999,
        "meta_rev_at_epoch": 86021,
        "meta_bstar": 0.0011489261,
        "meta_mean_motion_dot": 5.199e-05,
        "meta_mean_motion_ddot": 0,
        "tle_line1": "1 35806U 97051SQ  25325.91978556  .00005199  00000+0  11489-2 0  9999",
        "tle_line2": "2 35806  86.3448  29.7928 0015967 137.8294 222.4146 14.57052239860212"
      },
      "geometry": {
        "type": "Point",
        "coordinates": [
          -152.36872680583207,
          -35.35715789435782
        ]
      }
    },
    {
      "type": "Feature",
      "properties": {
        "norad_id": 35809,
        "name": "IRIDIUM 33 DEB",
        "group": "iridium-33-debris",
        "lat": -75.82718532957789,
        "lon": -34.83088397993166,
        "alt_km": 644.5202084314442,
        "timestamp": "2025-12-02T17:49:12.414883+00:00",
        "meta_object_name": "IRIDIUM 33 DEB",
        "meta_object_id": "1997-051ST",
        "meta_epoch": "2025-12-01T17:44:51.390816",
        "meta_mean_motion": 14.75313912,
        "meta_eccentricity": 0.00099663,
        "meta_inclination": 86.3281,
        "meta_ra_of_asc_node": 340.3571,
        "meta_arg_of_pericenter": 290.7283,
        "meta_mean_anomaly": 69.2867,
        "meta_ephemeris_type": 0,
        "meta_classification_type": "U",
        "meta_norad_cat_id": 35809,
        "meta_element_set_no": 999,
        "meta_rev_at_epoch": 86645,
        "meta_bstar": 0.0015973304,
        "meta_mean_motion_dot": 0.00010859,
        "meta_mean_motion_ddot": 0,
        "tle_line1": "1 35809U 97051ST  25335.73948369  .00010859  00000+0  15973-2 0  9993",
        "tle_line2": "2 35809  86.3281 340.3571 0009966 290.7283  69.2867 14.75313912866452"
      },
      "geometry": {
        "type": "Point",
        "coordinates": [
          -34.83088397993166,
          -75.82718532957789
        ]
      }
    },
    {
      "type": "Feature",
      "properties": {
        "norad_id": 35846,
        "name": "IRIDIUM 33 DEB",
        "group": "iridium-33-debris",
        "lat": 29.73509782886175,
        "lon": -118.97005425930435,
        "alt_km": 740.3407538957599,
        "timestamp": "2025-12-02T17:49:12.414894+00:00",
        "meta_object_name": "IRIDIUM 33 DEB",
        "meta_object_id": "1997-051SW",
        "meta_epoch": "2025-11-15T14:04:07.017312",
        "meta_mean_motion": 14.42992821,
        "meta_eccentricity": 0.00163082,
        "meta_inclination": 86.3745,
        "meta_ra_of_asc_node": 70.4244,
        "meta_arg_of_pericenter": 263.1259,
        "meta_mean_anomaly": 96.8086,
        "meta_ephemeris_type": 0,
        "meta_classification_type": "U",
        "meta_norad_cat_id": 35846,
        "meta_element_set_no": 999,
        "meta_rev_at_epoch": 70937,
        "meta_bstar": 0.0011049939,
        "meta_mean_motion_dot": 3.722e-05,
        "meta_mean_motion_ddot": 0,
        "tle_line1": "1 35846U 97051SW  25319.58619233  .00003722  00000+0  11050-2 0  9997",
        "tle_line2": "2 35846  86.3745  70.4244 0016308 263.1259  96.8086 14.42992821709373"
      },
      "geometry": {
        "type": "Point",
        "coordinates": [
          -118.97005425930435,
          29.73509782886175
        ]
      }
    },
    {
      "type": "Feature",
      "properties": {
        "norad_id": 35848,
        "name": "IRIDIUM 33 DEB",
        "group": "iridium-33-debris",
        "lat": 49.052692666532195,
        "lon": -163.54939601292142,
        "alt_km": 631.7088332143649,
        "timestamp": "2025-12-02T17:49:12.414904+00:00",
        "meta_object_name": "IRIDIUM 33 DEB",
        "meta_object_id": "1997-051SY",
        "meta_epoch": "2025-12-01T10:21:45.439488",
        "meta_mean_motion": 14.7824162,
        "meta_eccentricity": 0.00067103,
        "meta_inclination": 86.3925,
        "meta_ra_of_asc_node": 21.2088,
        "meta_arg_of_pericenter": 240.9704,
        "meta_mean_anomaly": 119.0844,
        "meta_ephemeris_type": 0,
        "meta_classification_type": "U",
        "meta_norad_cat_id": 35848,
        "meta_element_set_no": 999,
        "meta_rev_at_epoch": 66523,
        "meta_bstar": 0.0018930249,
        "meta_mean_motion_dot": 0.00013775,
        "meta_mean_motion_ddot": 0,
        "tle_line1": "1 35848U 97051SY  25335.43177592  .00013775  00000+0  18930-2 0  9991",
        "tle_line2": "2 35848  86.3925  21.2088 0006710 240.9704 119.0844 14.78241620665238"
      },
      "geometry": {
        "type": "Point",
        "coordinates": [
          -163.54939601292142,
          49.052692666532195
        ]
      }
    },
    {
      "type": "Feature",
      "properties": {
        "norad_id": 35850,
        "name": "IRIDIUM 33 DEB",
        "group": "iridium-33-debris",
        "lat": 86.32244960845266,
        "lon": 72.12666424154651,
        "alt_km": 630.8079295868329,
        "timestamp": "2025-12-02T17:49:12.414914+00:00",
        "meta_object_name": "IRIDIUM 33 DEB",
        "meta_object_id": "1997-051TA",
        "meta_epoch": "2025-12-02T07:40:10.229376",
        "meta_mean_motion": 14.7843662,
        "meta_eccentricity": 0.0007989,
        "meta_inclination": 86.3497,
        "meta_ra_of_asc_node": 348.9861,
        "meta_arg_of_pericenter": 227.4621,
        "meta_mean_anomaly": 132.5925,
        "meta_ephemeris_type": 0,
        "meta_classification_type": "U",
        "meta_norad_cat_id": 35850,
        "meta_element_set_no": 999,
        "meta_rev_at_epoch": 71203,
        "meta_bstar": 0.0019125,
        "meta_mean_motion_dot": 0.00013983,
        "meta_mean_motion_ddot": 0,
        "tle_line1": "1 35850U 97051TA  25336.31956284  .00013983  00000+0  19125-2 0  9993",
        "tle_line2": "2 35850  86.3497 348.9861 0007989 227.4621 132.5925 14.78436620712037"
      },
      "geometry": {
        "type": "Point",
        "coordinates": [
          72.12666424154651,
          86.32244960845266
        ]
      }
    }
  ]
}